ONEWEB-0435             
1 51632U 22012L   25134.83851185  .00000118  00000+0  30123-3 0  9999
2 51632  87.8805 115.7077 0001561  85.4670 274.6635 13.10378040157144
ONEWEB-0436             
1 51633U 22012M   25134.85107640  .00000083  00000+0  18127-3 0  9993
2 51633  87.9051  85.1590 0001794  85.7294 274.4042 13.17650902161223
ONEWEB-0438             
1 51634U 22012N   25134.44011902 -.00000811  00000+0 -23585-2 0  9998
2 51634  87.8802 115.7880 0002161  82.5130 277.6243 13.10373605157129
ONEWEB-0439             
1 51635U 22012P   25134.90158320 -.00000514  00000+0 -15101-2 0  9991
2 51635  87.8804 115.6835 0001961  84.8295 275.3056 13.10372806158440
ONEWEB-0442             
1 51636U 22012Q   25134.84349389  .00000006  00000+0 -17093-4 0  9991
2 51636  87.9060  85.2070 0002704  79.7264 280.4172 13.17651024161218
ONEWEB-0443             
1 51637U 22012R   25134.86287600  .00000035  00000+0  56278-4 0  9990
2 51637  87.9056  85.2165 0002101  72.5498 287.5863 13.17646876161269
ONEWEB-0444             
1 51638U 22012S   25134.89162611 -.00000643  00000+0 -18779-2 0  9997
2 51638  87.8796 115.6902 0001870  83.7972 276.3368 13.10370555158465
ONEWEB-0445             
1 51639U 22012T   25134.91322357 -.00000011  00000+0 -67618-4 0  9993
2 51639  87.8794 115.6423 0002198  88.1742 271.9637 13.10376647157186
